{
    "type": "FeatureCollection",
    "features": [
        {
            "type": "Feature",
            "geometry": {
                "type": "Point",
                "coordinates": [
                    -0.3362128323900907,
                    39.481263425707446
                ]
            },
            "properties": {
                "fid": 1
            }
        },
        {
            "type": "Feature",
            "geometry": {
                "type": "Point",
                "coordinates": [
                    -0.3365975026443797,
                    39.48123620840438
                ]
            },
            "properties": {
                "fid": 2
            }
        },
        {
            "type": "Feature",
            "geometry": {
                "type": "Point",
                "coordinates": [
                    -0.3368877066546447,
                    39.48124736412884
                ]
            },
            "properties": {
                "fid": 3
            }
        }
    ]
}